GLOBALSTAR M045 [-]     
1 25676U 99019A   23298.20215954 -.00000109  00000+0 -13751-3 0  9997
2 25676  51.9964 218.1419 0001485  77.2772  71.3345 12.27018005119851
GLOBALSTAR M019 [-]     
1 25677U 99019B   23298.33094213 -.00000018  00000+0  74754-3 0  9993
2 25677  51.9892 305.8788 0000910 163.4898 297.1882 12.13849217112369
GLOBALSTAR M044 [-]     
1 25678U 99019C   23298.16694052 -.00000037  00000+0  65349-3 0  9993
2 25678  51.9953 182.5056 0006215 328.4002 195.6259 11.90225561 99739
GLOBALSTAR M042 [-]     
1 25679U 99019D   23298.50066042 -.00000065  00000+0  25941-3 0  9999
2 25679  52.0017 306.6576 0003156 137.7766  32.7354 12.22049335111885
GLOBALSTAR M025 [-]     
1 25770U 99031A   23298.51670601 -.00000047  00000+0  62420-3 0  9991
2 25770  51.9784 110.7539 0001024 165.3842 261.2872 11.22546733 71919
GLOBALSTAR M049 [-]     
1 25771U 99031B   23297.49704611  .00000005  00000+0  24498-2 0  9992
2 25771  51.9836 117.6409 0003861  86.5476 273.5762 11.12101958 50486
GLOBALSTAR M047 [-]     
1 25772U 99031C   23297.32982543 -.00000067  00000+0  71965-4 0  9999
2 25772  51.9810 172.4913 0015801 312.8962  47.0517 11.31916534402950
GLOBALSTAR M052 [-]     
1 25773U 99031D   23297.55916491 -.00000080  00000+0 -48374-3 0  9997
2 25773  51.9858 234.6337 0001872 267.9669 263.0596 11.15046583411396
